260P/McNaught,e,15.1065,349.8152,17.7844,3.631683,0.1424106,0.60950370,280.4742,02/28.0/2018,2000,g 13.5,4.0
# From MPC102102
261P/Larson,e,6.0670,291.2384,66.8435,3.494043,0.1509078,0.42310964,288.2940,02/28.0/2018,2000,g 14.0,4.0
# From MPC 82322
262P/McNaught-Russell,e,29.1109,217.9427,171.0465,6.884795,0.0545591,0.81425802,104.4955,02/28.0/2018,2000,g 13.5,4.0
# From MPC 82323
263P/Gibbs,e,11.5317,105.8235,34.6113,3.061502,0.1839934,0.58753997,27.8090,02/28.0/2018,2000,g 18.0,4.0
# From MPC102102
264P/Larsen,e,25.1507,220.9056,346.5592,3.895392,0.1281968,0.37379355,292.9848,02/28.0/2018,2000,g 13.0,4.0
# From MPC 79870
265P/LINEAR,e,14.4699,343.8735,33.0264,4.230820,0.1132576,0.64997975,237.9971,02/28.0/2018,2000,g 14.5,4.0
# From MPC 90771
266P/Christensen,e,3.4278,5.0028,97.9834,3.532534,0.1484480,0.33947202,243.9512,02/28.0/2018,2000,g 12.5,4.0
# From MPC 81862
267P/LONEOS,e,6.1380,228.6890,114.0718,3.212531,0.1711721,0.61364666,335.2984,02/28.0/2018,2000,g 19.5,4.0
# From MPC 92277
268P/Bernardi,e,16.1020,127.6056,0.2654,4.558413,0.1012706,0.46952153,105.1798,02/28.0/2018,2000,g 14.0,4.0
# From MPC104795
269P/Jedicke,e,7.0552,241.7424,226.1299,7.100417,0.0520929,0.43527024,64.3324,02/28.0/2018,2000,g 10.0,4.0
# From MPC 88332
270P/Gehrels,e,2.9159,222.9601,210.1555,6.677010,0.0571256,0.46814545,98.2245,02/28.0/2018,2000,g  8.0,4.0
# From MPC 92277
271P/van Houten-Lemmon,e,6.8572,9.2916,36.7424,7.061618,0.0525228,0.39269052,88.8956,02/28.0/2018,2000,g 11.0,4.0
# From MPC 81862
272P/NEAT,e,18.0829,109.4872,28.0940,4.449310,0.1050183,0.45484105,191.9384,02/28.0/2018,2000,g 16.0,2.0
# From MPC 82723
273P/Pons-Gambart,e,136.5329,320.4051,20.1910,31.56215,0.0055585,0.97414437,0.0000,12/17.0426/2012,2000,g 11.5,4.0
# From MPC 88332
274P/Tombaugh-Tenagra,e,15.8196,81.3455,38.6259,4.366901,0.1080050,0.43889815,197.8510,02/28.0/2018,2000,g 13.0,4.0
# From MPC 81862
275P/Hermann,e,21.3313,348.7346,174.1402,5.766980,0.0711675,0.71380611,134.4229,02/28.0/2018,2000,g 15.0,4.0
# From MPC 84935
276P/Vorobjov,e,14.9680,211.7046,201.2578,5.283416,0.0811581,0.27370601,157.1537,02/28.0/2018,2000,g 11.5,4.0
# From MPC105243
277P/LINEAR,e,16.7590,276.3382,152.1486,3.857427,0.1300941,0.50399568,225.0655,02/28.0/2018,2000,g 14.0,4.0
# From MPC105243
278P/McNaught,e,6.6837,15.4809,237.9361,3.696264,0.1386946,0.43459167,231.4360,02/28.0/2018,2000,g 14.0,4.0
# From MPC 10028
279P/La Sagra,e,5.0467,346.2351,5.8179,3.579052,0.1455633,0.39701866,86.4066,02/28.0/2018,2000,g 14.0,4.0
# From MPC 89013
280P/Larsen,e,11.7698,131.4539,104.6664,4.528181,0.1022865,0.41850984,157.3888,02/28.0/2018,2000,g 12.5,4.0
# From MPC 83145
281P/MOSS,e,4.7202,87.1763,27.2440,4.864423,0.0918665,0.17174182,194.2330,02/28.0/2018,2000,g 11.0,4.0
# From unp
282P/,e,5.8094,9.3471,217.1720,4.249020,0.1125307,0.18946818,210.1189,02/28.0/2018,2000,g 13.5,2.0
# From MPC 84027
283P/Spacewatch,e,14.4624,161.1904,22.2611,4.137475,0.1171119,0.48585278,209.2577,02/28.0/2018,2000,g 16.0,2.0
# From MPC 93589
284P/McNaught,e,11.8601,144.2935,202.7994,3.672341,0.1400521,0.37571614,178.6989,02/28.0/2018,2000,g 13.0,4.0
# From MPC 85339
285P/LINEAR,e,25.0120,185.4748,178.4673,4.509125,0.1029356,0.61745785,176.5654,02/28.0/2018,2000,g 15.0,4.0
# From MPC 90771
286P/Christensen,e,17.0379,283.9463,24.6903,4.115464,0.1180527,0.42410095,178.7174,02/28.0/2018,2000,g 14.0,4.0
# From MPC 96868
287P/Christensen,e,16.3061,139.0335,188.8410,4.172945,0.1156219,0.26927698,133.9401,02/28.0/2018,2000,g 13.5,4.0
# From unp
288P/,e,3.2403,83.1865,280.9534,3.048280,0.1851918,0.20107041,88.3538,02/28.0/2018,2000,g 16.0,2.0
# From MPC102102
289P/Blanpain,e,5.8981,68.9309,9.8123,3.045868,0.1854118,0.68463991,237.3986,02/28.0/2018,2000,g 10.0,4.0
# From MPC 95214
290P/Jager,e,19.0826,303.3696,180.8372,6.131599,0.0649148,0.64755453,94.0682,02/28.0/2018,2000,g 10.5,4.0
# From MPC 89314
291P/NEAT,e,6.2894,238.4822,175.7447,4.473342,0.1041732,0.44456072,160.4991,02/28.0/2018,2000,g 13.0,4.0
# From MPC 93589
292P/Li,e,24.2511,91.0082,319.6025,6.117756,0.0651352,0.58751989,96.9063,02/28.0/2018,2000,g 12.5,4.0
# From MPC 92278
293P/Spacewatch,e,9.0577,78.4154,41.1998,3.639839,0.1419321,0.41839890,214.4473,02/28.0/2018,2000,g 14.5,4.0
# From MPC 89013
294P/LINEAR,e,18.2131,312.6282,235.4914,3.205832,0.1717090,0.59444519,250.1773,02/28.0/2018,2000,g 15.5,4.0
# From MPC 93589
295P/LINEAR,e,21.1093,7.5859,73.0183,5.311547,0.0805142,0.61646894,111.6849,02/28.0/2018,2000,g 12.0,4.0
# From MPC 92278
296P/Garradd,e,25.2297,263.6376,350.0246,3.499683,0.1505432,0.47827687,219.5694,02/28.0/2018,2000,g 14.0,4.0
# From MPC102956
297P/Beshore,e,10.3259,97.6664,132.3270,3.445593,0.1541019,0.31944609,196.7831,02/28.0/2018,2000,g 15.0,4.0
# From MPC105243
298P/Christensen,e,7.8721,52.8282,100.7676,3.592161,0.1447673,0.38748342,226.6446,02/28.0/2018,2000,g 15.0,4.0
# From MPC101100
299P/Catalina-PANSTARRS,e,10.4761,271.6413,323.7418,4.380110,0.1075169,0.28279172,118.2271,02/28.0/2018,2000,g 11.5,4.0
# From MPC 89314
300P/Catalina,e,5.6758,95.6841,222.8610,2.699258,0.2222478,0.69158914,305.0897,02/28.0/2018,2000,g 16.0,4.0
# From MPC 89014
301P/LINEAR-NEAT,e,10.3623,351.1689,193.6908,5.732574,0.0718091,0.58710235,91.5566,02/28.0/2018,2000,g 13.0,4.0
# From MPC108598
302P/Lemmon-PANSTARRS,e,6.0309,121.7635,208.2084,4.280320,0.1112986,0.22881218,74.4400,02/28.0/2018,2000,g 12.5,4.0
# From MPC 92278
303P/NEAT,e,7.0062,347.9985,356.8819,5.055221,0.0867149,0.50864096,106.9947,02/28.0/2018,2000,g 13.5,4.0
# From MPC 92987
304P/Ory,e,2.8397,58.2217,335.2235,3.144134,0.1767879,0.62148515,206.3874,02/28.0/2018,2000,g 16.5,4.0
# From MPC101100
305P/Skiff,e,11.6353,240.1544,147.3151,4.647642,0.0983683,0.69249461,118.0091,02/28.0/2018,2000,g 18.0,4.0
# From MPC 92278
306P/LINEAR,e,8.3212,341.4678,0.8448,3.118411,0.1789798,0.59386687,235.8213,02/28.0/2018,2000,g 19.0,4.0
# From MPC 91619
307P/LINEAR,e,4.4252,158.0913,222.3039,5.802987,0.0705061,0.67309669,82.2654,02/28.0/2018,2000,g 15.0,4.0
# From MPC 96869
308P/Lagerkvist-Carsenty,e,4.8489,63.1364,333.8977,6.621106,0.0578507,0.36206413,59.5304,02/28.0/2018,2000,g 13.0,2.0
# From MPC 94284
309P/LINEAR,e,17.2031,10.6185,49.7919,4.369994,0.1078904,0.61983708,119.2925,02/28.0/2018,2000,g 15.0,4.0
# From MPC 98566
310P/Hill,e,13.1595,8.9753,31.9517,4.171891,0.1156657,0.42375993,121.1265,02/28.0/2018,2000,g 13.5,4.0
# From MPC108598
311P/PANSTARRS,e,4.9669,279.2577,143.9683,2.188449,0.3044384,0.11554312,70.7548,02/28.0/2018,2000,g 17.0,4.0
# From MPC 92279
312P/NEAT,e,19.7750,144.8507,207.6704,3.461164,0.1530632,0.42944980,216.1059,02/28.0/2018,2000,g 16.0,4.0
# From MPC 92987
313P/Gibbs,e,10.9499,106.1968,254.0615,3.165112,0.1750332,0.23772182,224.4997,02/28.0/2018,2000,g 15.0,4.0
# From MPC105243
314P/Montani,e,3.9778,267.6653,213.9452,7.271498,0.0502653,0.41746489,25.4811,02/28.0/2018,2000,g  9.5,4.0
# From MPC105243
315P/LONEOS,e,17.9453,69.4842,67.1760,5.022473,0.0875644,0.51875247,39.2320,02/28.0/2018,2000,g 11.0,4.0
# From MPC 92279
316P/LONEOS-Christensen,e,9.9007,246.8010,192.6703,4.314493,0.1099789,0.16806042,93.3445,02/28.0/2018,2000,g 13.5,4.0
# From MPC102103
317P/WISE,e,11.9456,275.5251,334.8380,2.967144,0.1928395,0.57029597,178.5337,02/28.0/2018,2000,g 17.5,4.0
# From MPC102103
318P/McNaught-Hartley,e,17.8705,35.7250,313.1249,7.501386,0.0479724,0.67400787,41.2408,02/28.0/2018,2000,g  8.5,6.0
# From MPC 97499
319P/Catalina-McNaught,e,15.0843,111.3593,203.6060,3.571573,0.1460208,0.66553951,141.9537,02/28.0/2018,2000,g 15.0,4.0
# From MPC 95736
320P/McNaught,e,4.9041,295.9179,0.7369,3.096162,0.1809125,0.68508956,169.2375,02/28.0/2018,2000,g 20.5,4.0
# From MPEC 2017-L52
321P/SOHO,e,20.0114,165.0535,172.7116,2.422522,0.2613981,0.98099577,0.0000,01/17.3999/2020,2000,g 20.0,4.0
# From MPC 94284
321P/SOHO,e,20.1577,165.2062,172.5538,2.422502,0.2614013,0.98103979,0.0000,01/17.3722/2020,2000,g 20.0,4.0
# From MPC102103
322P/SOHO,e,12.1602,357.0290,51.4745,2.514165,0.2472369,0.97972597,0.0000,08/30.8411/2019,2000,g 19.0,4.0
# From MPC102957
323P/SOHO,e,4.6759,323.0022,354.3219,2.583208,0.2373915,0.98466738,0.0000,11/23.6048/2016,2000,g 20.0,4.0
# From MPC108598
324P/La Sagra,e,21.4226,270.6377,58.3587,3.094402,0.1810669,0.15402602,148.7928,02/28.0/2018,2000,g 13.0,4.0
# From MPC 95736
325P/Yang-Gao,e,16.6992,257.5860,343.6322,3.524135,0.1489791,0.59402117,138.1840,02/28.0/2018,2000,g 14.0,4.0
# From MPC103849
326P/Hill,e,2.4707,99.8118,278.7348,4.067441,0.1201495,0.31675057,103.3185,02/28.0/2018,2000,g 13.5,4.0
# From MPC 97499
327P/Van Ness,e,36.2142,173.9628,185.0648,3.564721,0.1464420,0.56214525,118.4541,02/28.0/2018,2000,g 16.0,4.0
# From MPC 97499
328P/LONEOS-Tucker,e,17.6496,341.5992,30.5791,4.200088,0.1145029,0.55076330,91.2781,02/28.0/2018,2000,g 14.5,4.0
# From MPC101101
329P/LINEAR-Catalina,e,21.6002,87.8814,343.4069,5.198278,0.0831601,0.67920270,67.8711,02/28.0/2018,2000,g 13.5,4.0
# From MPC105243
330P/Catalina,e,15.5576,294.0720,187.4781,6.609898,0.0579979,0.55272314,31.6600,02/28.0/2018,2000,g 12.0,4.0
# From MPC 98566
331P/Gibbs,e,9.7446,216.8144,180.5663,3.008193,0.1889059,0.03981640,184.4536,02/28.0/2018,2000,g 12.0,4.0
# From MPEC 2016-K18
332P/Ikeya-Murakami,e,9.3866,3.7837,152.4381,3.086035,0.1818037,0.49005765,129.6068,02/28.0/2018,2000,g 18.0,4.0
# From MPC 99822
332P-A/Ikeya-Murakami,e,9.3866,3.7838,152.4379,3.086035,0.1818037,0.49005744,129.6068,02/28.0/2018,2000,g 18.0,4.0
# From MPEC 2016-EI8
332P-B/Ikeya-Murakami,e,9.3805,3.8028,152.3711,3.082329,0.1821317,0.48970701,359.9699,03/17.0/2016,2000,g 19.0,4.0
# From MPC 99822
332P-C/Ikeya-Murakami,e,9.3856,3.7841,152.4293,3.086001,0.1818067,0.49006234,129.6171,02/28.0/2018,2000,g 16.5,4.0
# From MPEC 2016-ED0
332P-D/Ikeya-Murakami,e,9.3761,3.7923,152.4393,3.081138,0.1822373,0.48977814,359.9486,03/17.0/2016,2000,g 19.0,4.0
# From MPEC 2016-ED0
332P-E/Ikeya-Murakami,e,9.3774,3.8228,152.2825,3.079877,0.1823493,0.48922008,359.9889,03/17.0/2016,2000,g 21.0,4.0
# From MPEC 2016-ED0
